
# C41 (GNSS)
1 44864U 19090A   25235.18492583 -.00000016  00000+0  00000+0 0  9998
2 44864  56.2940  72.6591 0015686 289.6820 248.9696  1.86231664 38681

# C42 (GNSS)
1 44865U 19090B   25236.16842356 -.00000022  00000+0  00000+0 0  9992
2 44865  56.2961  72.6605 0013299 305.2336 262.4299  1.86231642 38682

# C60 (GNSS)
1 45344U 20017A   25236.61797383 -.00000153  00000+0  00000+0 0  9990
2 45344   2.9920  41.7588 0001789 136.2765  97.6086  1.00272787 20284

# C61 (GNSS)
1 45807U 20040A   25232.78409072 -.00000372  00000+0  00000+0 0  9992
2 45807   1.7116  65.2529 0004308 335.4598 321.4431  1.00274649 19059

# C62 (GNSS)
1 56564U 23066A   25236.55530637 -.00000124  00000+0  00000+0 0  9991
2 56564   1.0660 295.0429 0006254 204.8819 193.0815  1.00272936  8422

# C50 (GNSS)
1 58654U 23207A   25235.82505090 -.00000023  00000+0  00000+0 0  9992
2 58654  55.4837  72.3542 0001074  22.5543 337.5215  1.86229954 11305

# E24 (GNSS)
1 40889U 15045A   25234.07817011  .00000031  00000+0  00000+0 0  9997
2 40889  55.0464 229.8659 0003187  11.0061 348.9957  1.70473356 61912

# E30 (GNSS)
1 40890U 15045B   25235.47199167  .00000025  00000+0  00000+0 0  9992
2 40890  55.0453 229.8226 0001885 331.0135  28.9616  1.70473378 61968

# E07 (GNSS)
1 41859U 16069A   25235.93435793 -.00000006  00000+0  00000+0 0  9994
2 41859  55.3112 109.3194 0003254 337.9170  22.1646  1.70473718 54331

# E08 (GNSS)
1 41175U 15079B   25235.86105800 -.00000005  00000+0  00000+0 0  9999
2 41175  55.6413 109.4225 0003198   3.0193 357.0783  1.70473715 60121

# E09 (GNSS)
1 41174U 15079A   25236.22756730 -.00000005  00000+0  00000+0 0  9993
2 41174  55.6430 109.4152 0003625 353.5876   6.5042  1.70473837 59716

# E01 (GNSS)
1 41550U 16030B   25235.65541545  .00000025  00000+0  00000+0 0  9992
2 41550  55.1946 229.8740 0004354 244.3683 115.5715  1.70473755 57595

# E02 (GNSS)
1 41549U 16030A   25234.81112248  .00000027  00000+0  00000+0 0  9993
2 41549  55.1948 229.8989 0003340 315.2129  44.7500  1.70473424 57584

# E03 (GNSS)
1 41860U 16069B   25235.20156540 -.00000007  00000+0  00000+0 0  9997
2 41860  55.3084 109.3352 0003545  20.9770 339.1311  1.70473972 54573

# E04 (GNSS)
1 41861U 16069C   25236.15594060 -.00000006  00000+0  00000+0 0  9995
2 41861  55.3111 109.3162 0002430 316.6562  43.4207  1.70474440 54457

# E05 (GNSS)
1 41862U 16069D   25235.71516093 -.00000006  00000+0  00000+0 0  9997
2 41862  55.3098 109.3215 0002319 321.0517  39.0266  1.70474053 54576

# E21 (GNSS)
1 43055U 17079A   25236.20469924  .00000025  00000+0  00000+0 0  9990
2 43055  55.1721 229.6764 0003578 265.6550  94.2860  1.70474161 47920

# E25 (GNSS)
1 43056U 17079B   25235.32290348  .00000026  00000+0  00000+0 0  9996
2 43056  55.1726 229.7006 0004851 275.9072  84.0237  1.70474294 47926

# E27 (GNSS)
1 43057U 17079C   25236.13013549  .00000025  00000+0  00000+0 0  9992
2 43057  55.1702 229.6765 0004107 288.8446  71.0930  1.70474241 47922

# E31 (GNSS)
1 43058U 17079D   25235.17705318  .00000026  00000+0  00000+0 0  9999
2 43058  55.1710 229.7004 0005303 273.4338  86.4926  1.70474175 47930

# E36 (GNSS)
1 43566U 18060C   25232.58733666 -.00000112  00000+0  00000+0 0  9990
2 43566  57.2590 349.9053 0002618 269.8301  90.1409  1.70476137 44066

# E13 (GNSS)
1 43567U 18060D   25229.87529194 -.00000104  00000+0  00000+0 0  9999
2 43567  57.2596 349.9783 0003079 263.9639  96.0054  1.70475724 44000

# E15 (GNSS)
1 43564U 18060A   25236.25298430 -.00000112  00000+0  00000+0 0  9991
2 43564  57.2550 349.8021 0003689 265.5438  94.4229  1.70476302 44103

# E33 (GNSS)
1 43565U 18060B   25235.29898777 -.00000113  00000+0  00000+0 0  9996
2 43565  57.2590 349.8307 0003914 231.2005 128.7704  1.70476041 44138

# E34 (GNSS)
1 49809U 21116A   25234.43121103 -.00000113  00000+0  00000+0 0  9996
2 49809  57.2471 349.7466 0003477 205.9423 160.7762  1.70476245 23092

# E10 (GNSS)
1 49810U 21116B   25235.98864285 -.00000112  00000+0  00000+0 0  9993
2 49810  57.2478 349.7034 0002903 201.8158 153.3051  1.70476443 23139

# R01 (GNSS)
1 36111U 09070A   25235.11420211  .00000018  00000+0  00000+0 0  9994
2 36111  64.8341  81.1534 0002326 348.6007 195.0022  2.13103734122078

# R02 (GNSS)
1 39155U 13019A   25236.33903325  .00000013  00000+0  00000+0 0  9995
2 39155  65.2522  83.5787 0022229 228.0431 131.8495  2.13104618 95957

# R03 (GNSS)
1 37867U 11064A   25236.17374453  .00000013  00000+0  00000+0 0  9997
2 37867  65.0988  82.9110 0021730 232.2800 313.4409  2.13101547107433

# R04 (GNSS)
1 44850U 19088A   25235.51769884  .00000019  00000+0  00000+0 0  9990
2 44850  65.3975  83.6770 0011540 250.1018 109.8586  2.13102030 44374

# R05 (GNSS)
1 43508U 18053A   25233.69621391  .00000024  00000+0  00000+0 0  9993
2 43508  65.4091  83.9092 0006737 218.8463 141.1921  2.13102188 55895

# R06 (GNSS)
1 36112U 09070B   25236.58313368  .00000008  00000+0  00000+0 0  9990
2 36112  64.8204  80.9529 0005485 132.7831 227.9115  2.13101215122119

# R07 (GNSS)
1 37868U 11064B   25231.17309203  .00000012  00000+0  00000+0 0  9993
2 37868  65.1026  83.1569 0018779 233.1133 256.6266  2.13102978107323

# R08 (GNSS)
1 37869U 11064C   25236.50589807  .00000011  00000+0  00000+0 0  9995
2 37869  65.1126  82.9953 0023695 248.9073 328.4453  2.13101863107440

# R09 (GNSS)
1 40315U 14075A   25236.25941168  .00000010  00000+0  00000+0 0  9993
2 40315  63.6179 200.6491 0021600 211.1854 148.6555  2.13101417 83522

# R10 (GNSS)
1 32395U 07065C   25236.42494841  .00000013  00000+0  00000+0 0  9996
2 32395  64.3271 201.9930 0016885 355.1032  91.2571  2.13100083137406

# R11 (GNSS)
1 46805U 20075A   25235.43132035  .00000007  00000+0  00000+0 0  9990
2 46805  64.5994 202.4108 0008793 240.0919 119.7903  2.13099981 37564

# R12 (GNSS)
1 44299U 19030A   25236.11529977  .00000011  00000+0  00000+0 0  9990
2 44299  64.3690 202.6174 0012988 277.7073 197.5501  2.13102212 48599

# R13 (GNSS)
1 32393U 07065A   25236.25669725  .00000011  00000+0  00000+0 0  9998
2 32393  64.3185 201.9296 0000828   7.6206 176.0931  2.13101300137444

# R14 (GNSS)
1 42939U 17055A   25236.08189186  .00000010  00000+0  00000+0 0  9993
2 42939  64.0797 201.9952 0010044 240.2461 119.6232  2.13102085 61641

# R15 (GNSS)
1 43687U 18086A   25236.14003213  .00000011  00000+0  00000+0 0  9993
2 43687  64.2956 202.6226 0011309 257.9473 101.8955  2.13102010 52953

# R16 (GNSS)
1 54377U 22161A   25236.19955273  .00000012  00000+0  00000+0 0  9998
2 54377  64.7411 202.5677 0011415 223.6573 136.2224  2.13102079 21301

# R17 (GNSS)
1 41330U 16008A   25236.24341405 -.00000069  00000+0  00000+0 0  9991
2 41330  65.1940 323.1889 0012849 207.3026 152.6844  2.13102615 74299

# R18 (GNSS)
1 39620U 14012A   25235.82768238 -.00000070  00000+0  00000+0 0  9995
2 39620  65.4671 324.0325 0011277 311.1681  48.7868  2.13103261 88904

# R19 (GNSS)
1 54031U 22130A   25235.41660348 -.00000073  00000+0  00000+0 0  9999
2 54031  64.4419 325.0588 0013068 184.7729 175.2636  2.13101661 22342

# R20 (GNSS)
1 32276U 07052B   25236.52427157 -.00000072  00000+0  00000+0 0  9993
2 32276  65.7555 326.0296 0008294 312.2331 130.4911  2.13103168138760

# R21 (GNSS)
1 40001U 14032A   25233.18580270 -.00000072  00000+0  00000+0 0  9999
2 40001  65.4045 323.8931 0008881 200.2071 159.8010  2.13106004 87069

# R22 (GNSS)
1 52984U 22075A   25235.59770221 -.00000073  00000+0  00000+0 0  9993
2 52984  64.4690 324.9592 0012127 271.2655  88.6454  2.13102236 24375

# R23 (GNSS)
1 36402U 10007C   25236.55154579 -.00000071  00000+0  00000+0 0  9999
2 36402  65.5880 324.4944 0001905 198.1014 136.1573  2.13106282120406

# R24 (GNSS)
1 45358U 20018A   25234.77532485 -.00000069  00000+0  00000+0 0  9997
2 45358  64.5317 322.8968 0010908 234.9273 125.0208  2.13102491 42309

# R25 (GNSS)
1 32275U 07052A   25235.40604582 -.00000072  00000+0  00000+0 0  9997
2 32275  65.7404 325.9449 0004655 220.8301 139.1827  2.13104163138711
